*******************************************************************************
JPL/HORIZONS                 751 Faina (A913 HE)           2020-Jun-22 09:27:28
Rec #:     751 (+COV) Soln.date: 2020-May-20_01:12:10   # obs: 2537 (1913-2020)
 
IAU76/J2000 helio. ecliptic osc. elements (au, days, deg., period=Julian yrs):
 
  EPOCH=  2455677.5 ! 2011-Apr-26.00 (TDB)         Residual RMS= .29748
   EC= .1516887561319571   QR= 2.164368590955143   TP= 2456302.1833682801
   OM= 78.89296449304115   W=  302.7691136742162   IN= 15.61088335501785
   A= 2.551385009452753    MA= 208.9224205613458   ADIST= 2.938401427950362
   PER= 4.07542            N= .241846642           ANGMOM= .027159053
   DAN= 2.30355            DDN= 2.71564            L= 22.6496708
   B= -13.0780011          MOID= 1.20987999        TP= 2013-Jan-09.6833682801
 
Asteroid physical parameters (km, seconds, rotational period in hours):
   GM= n.a.                RAD= 56.8495            ROTPER= 23.678
   H= 8.7                  G= .080                 B-V= .685
                           ALBEDO= .027            STYP= Ch
 
ASTEROID comments: 
1: soln ref.= JPL#43, OCC=0
2: source=ORB
*******************************************************************************
 
 
*******************************************************************************
Ephemeris / WWW_USER Mon Jun 22 09:27:28 2020 Pasadena, USA      / Horizons
*******************************************************************************
Target body name: 751 Faina (A913 HE)             {source: JPL#43}
Center body name: Solar System Barycenter (0)     {source: DE431}
Center-site name: BODY CENTER
*******************************************************************************
Start time      : A.D. 1969-Jun-28 00:00:00.0000 TDB
Stop  time      : A.D. 2071-May-04 00:00:00.0000 TDB
Step-size       : 7200 minutes
*******************************************************************************
Center geodetic : 0.00000000,0.00000000,0.0000000 {E-lon(deg),Lat(deg),Alt(km)}
Center cylindric: 0.00000000,0.00000000,0.0000000 {E-lon(deg),Dxy(km),Dz(km)}
Center radii    : (undefined)                                                  
Small perturbers: Yes                             {source: SB431-N16}
Output units    : AU-D
Output type     : GEOMETRIC cartesian states
Output format   : 2 (position and velocity)
Reference frame : Ecliptic of J2000.0
*******************************************************************************
Initial IAU76/J2000 heliocentric ecliptic osculating elements (au, days, deg.):
  EPOCH=  2455677.5 ! 2011-Apr-26.00 (TDB)         Residual RMS= .29748        
   EC= .1516887561319571   QR= 2.164368590955143   TP= 2456302.1833682801      
   OM= 78.89296449304115   W=  302.7691136742162   IN= 15.61088335501785       
  Equivalent ICRF heliocentric equatorial cartesian coordinates (au, au/d):
   X=-2.047246315881200E+00  Y=-2.020344203640493E+00  Z=-3.817937998091539E-01
  VX= 6.587135507900519E-03 VY=-4.948319555923497E-03 VZ=-4.484838347643550E-03
Asteroid physical parameters (km, seconds, rotational period in hours):        
   GM= n.a.                RAD= 56.8495            ROTPER= 23.678              
   H= 8.7                  G= .080                 B-V= .685                   
                           ALBEDO= .027            STYP= Ch                    
*******************************************************************************
            JDTDB,            Calendar Date (TDB),        delta-T,                      X,                      Y,                      Z,                     VX,                     VY,                     VZ,
******************************************************************************************************************************************************************************************************************
$$SOE
2467840.500000000, A.D. 2044-Aug-13 00:00:00.0000,      69.182970,  2.091019480891782E-01, -2.578683579182835E+00, -1.998140754685845E-01,  9.905633808577464E-03,  2.612016982785226E-03, -2.562706403149490E-03,
2467845.500000000, A.D. 2044-Aug-18 00:00:00.0000,      69.182862,  2.585824184610087E-01, -2.565079198827132E+00, -2.125845063751489E-01,  9.885825853681538E-03,  2.829879379574669E-03, -2.545258893913795E-03,
2467850.500000000, A.D. 2044-Aug-23 00:00:00.0000,      69.182762,  3.079528613563348E-01, -2.550383408751970E+00, -2.252645808710879E-01,  9.861610739077825E-03,  3.048567640202317E-03, -2.526561269805674E-03,
2467855.500000000, A.D. 2044-Aug-28 00:00:00.0000,      69.182672,  3.571910598739369E-01, -2.534592281051107E+00, -2.378480100326942E-01,  9.832916043723643E-03,  3.268000604454519E-03, -2.506598229761901E-03,
2467860.500000000, A.D. 2044-Sep-02 00:00:00.0000,      69.182590,  4.062744354067089E-01, -2.517702302633201E+00, -2.503284290431974E-01,  9.799669526363275E-03,  3.488093488960125E-03, -2.485354724122063E-03,
2467865.500000000, A.D. 2044-Sep-07 00:00:00.0000,      69.182516,  4.551800488484926E-01, -2.499710393600817E+00, -2.626993985492039E-01,  9.761799250108101E-03,  3.708757782158418E-03, -2.462815994779669E-03,
2467870.500000000, A.D. 2044-Sep-12 00:00:00.0000,      69.182453,  5.038846024453763E-01, -2.480613926150084E+00, -2.749544062236178E-01,  9.719233715700765E-03,  3.929901141207343E-03, -2.438967617627553E-03,
2467875.500000000, A.D. 2044-Sep-17 00:00:00.0000,      69.182403,  5.523644423359344E-01, -2.460410743979375E+00, -2.870868685465943E-01,  9.671902003917822E-03,  4.151427291560861E-03, -2.413795547332829E-03,
2467880.500000000, A.D. 2044-Sep-22 00:00:00.0000,      69.182365,  6.005955618274410E-01, -2.439099182192673E+00, -2.990901328163403E-01,  9.619733927630091E-03,  4.373235929534420E-03, -2.387286164518883E-03,
2467885.500000000, A.D. 2044-Sep-27 00:00:00.0000,      69.182340,  6.485536054571601E-01, -2.416678087682344E+00, -3.109574794020267E-01,  9.562660193793720E-03,  4.595222628036370E-03, -2.359426325435045E-03,
2467890.500000000, A.D. 2044-Oct-02 00:00:00.0000,      69.182325,  6.962138738886183E-01, -2.393146839974226E+00, -3.226821242513382E-01,  9.500612575469938E-03,  4.817278746036103E-03, -2.330203414147197E-03,
2467895.500000000, A.D. 2044-Oct-07 00:00:00.0000,      69.182321,  7.435513296933370E-01, -2.368505372514306E+00, -3.342572216652990E-01,  9.433524094020023E-03,  5.039291342602070E-03, -2.299605397255426E-03,
2467900.500000000, A.D. 2044-Oct-12 00:00:00.0000,      69.182329,  7.905406040694080E-01, -2.342754194372051E+00, -3.456758673530093E-01,  9.361329211681906E-03,  5.261143096338504E-03, -2.267620881142466E-03,
2467905.500000000, A.D. 2044-Oct-17 00:00:00.0000,      69.182351,  8.371560045492861E-01, -2.315894412331398E+00, -3.569311017789522E-01,  9.283964034706604E-03,  5.482712231017752E-03, -2.234239171752022E-03,
2467910.500000000, A.D. 2044-Oct-22 00:00:00.0000,      69.182387,  8.833715237499193E-01, -2.287927753336392E+00, -3.680159138154885E-01,  9.201366527167363E-03,  5.703872448230162E-03, -2.199450336881508E-03,
2467915.500000000, A.D. 2044-Oct-27 00:00:00.0000,      69.182435,  9.291608492186880E-01, -2.258856587254184E+00, -3.789232447130252E-01,  9.113476735473693E-03,  5.924492867946065E-03, -2.163245270949803E-03,
2467920.500000000, A.D. 2044-Nov-01 00:00:00.0000,      69.182493,  9.744973744286130E-01, -2.228683949913375E+00, -3.896459924000704E-01,  9.020237023556511E-03,  6.144437977997722E-03, -2.125615762168464E-03,
2467925.500000000, A.D. 2044-Nov-06 00:00:00.0000,      69.182560,  1.019354210976084E+00, -2.197413566370321E+00, -4.001770161249434E-01,  8.921592318690136E-03,  6.363567593601536E-03, -2.086554562016830E-03,
2467930.500000000, A.D. 2044-Nov-11 00:00:00.0000,      69.182640,  1.063704202034352E+00, -2.165049874350365E+00, -4.105091414504132E-01,  8.817490367986047E-03,  6.581736828047534E-03, -2.046055456920328E-03,
2467935.500000000, A.D. 2044-Nov-16 00:00:00.0000,      69.182731,  1.107519937116299E+00, -2.131598047805618E+00, -4.206351656120732E-01,  8.707882005617567E-03,  6.798796075532266E-03, -2.004113342059772E-03,
2467940.500000000, A.D. 2044-Nov-21 00:00:00.0000,      69.182832,  1.150773768200023E+00, -2.097064020526526E+00, -4.305478632509778E-01,  8.592721430675146E-03,  7.014591006943256E-03, -1.960724297255664E-03,
2467945.500000000, A.D. 2044-Nov-26 00:00:00.0000,      69.182943,  1.193437827269512E+00, -2.061454509740430E+00, -4.402399925307111E-01,  8.471966495265857E-03,  7.228962579432487E-03, -1.915885664833609E-03,
2467950.500000000, A.D. 2044-Dec-01 00:00:00.0000,      69.183060,  1.235484045320199E+00, -2.024777039625629E+00, -4.497043016483906E-01,  8.345579002247340E-03,  7.441747060837682E-03, -1.869596129299746E-03,
2467955.500000000, A.D. 2044-Dec-06 00:00:00.0000,      69.183183,  1.276884172875732E+00, -1.987039964663497E+00, -4.589335357480586E-01,  8.213525011849644E-03,  7.652776070290321E-03, -1.821855798567296E-03,
2467960.500000000, A.D. 2044-Dec-11 00:00:00.0000,      69.183312,  1.317609802058379E+00, -1.948252492743714E+00, -4.679204442433689E-01,  8.075775156375215E-03,  7.861876636656245E-03, -1.772666286386453E-03,
2467965.500000000, A.D. 2044-Dec-16 00:00:00.0000,      69.183449,  1.357632390251770E+00, -1.908424707929234E+00, -4.766577885547028E-01,  7.932304962360874E-03,  8.068871276425764E-03, -1.722030795641094E-03,
2467970.500000000, A.D. 2044-Dec-21 00:00:00.0000,      69.183591,  1.396923285392196E+00, -1.867567592780920E+00, -4.851383502644838E-01,  7.783095179744575E-03,  8.273578092081808E-03, -1.669954202300754E-03,
2467975.500000000, A.D. 2044-Dec-26 00:00:00.0000,      69.183736,  1.435453752921696E+00, -1.825693050137649E+00, -4.933549396934735E-01,  7.628132117239254E-03,  8.475810891685288E-03, -1.616443139819313E-03,
